{
  "type": "FeatureCollection",
  "features": [
    {
      "type": "Feature",
      "properties": {
        "norad_id": 33376,
        "name": "GALAXY 19 (G-19)",
        "group": "intelsat",
        "lat": -0.006974883051766495,
        "lon": 154.9028856729589,
        "alt_km": 35793.058057015645,
        "timestamp": "2025-12-09T11:33:54.468157+00:00",
        "meta_object_name": "GALAXY 19 (G-19)",
        "meta_object_id": "2008-045A",
        "meta_epoch": "2025-12-09T04:12:38.528352",
        "meta_mean_motion": 1.00269834,
        "meta_eccentricity": 0.0003371,
        "meta_inclination": 0.0184,
        "meta_ra_of_asc_node": 313.435,
        "meta_arg_of_pericenter": 318.3017,
        "meta_mean_anomaly": 132.588,
        "meta_ephemeris_type": 0,
        "meta_classification_type": "U",
        "meta_norad_cat_id": 33376,
        "meta_element_set_no": 999,
        "meta_rev_at_epoch": 6299,
        "meta_bstar": 0,
        "meta_mean_motion_dot": -1.37e-06,
        "meta_mean_motion_ddot": 0,
        "tle_line1": "1 33376U 08045A   25343.17544593 -.00000137  00000+0  00000+0 0  9994",
        "tle_line2": "2 33376   0.0184 313.4350 0003371 318.3017 132.5880  1.00269834 62999"
      },
      "geometry": {
        "type": "Point",
        "coordinates": [
          154.9028856729589,
          -0.006974883051766495
        ]
      }
    },
    {
      "type": "Feature",
      "properties": {
        "norad_id": 35493,
        "name": "FM-5",
        "group": "intelsat",
        "lat": -0.01890801497620185,
        "lon": 165.80555702720142,
        "alt_km": 35782.95883760957,
        "timestamp": "2025-12-09T11:33:54.468169+00:00",
        "meta_object_name": "FM-5",
        "meta_object_id": "2009-034A",
        "meta_epoch": "2025-12-08T23:27:59.810976",
        "meta_mean_motion": 1.0027183,
        "meta_eccentricity": 7.69e-05,
        "meta_inclination": 0.0205,
        "meta_ra_of_asc_node": 287.8987,
        "meta_arg_of_pericenter": 250.7085,
        "meta_mean_anomaly": 165.2291,
        "meta_ephemeris_type": 0,
        "meta_classification_type": "U",
        "meta_norad_cat_id": 35493,
        "meta_element_set_no": 999,
        "meta_rev_at_epoch": 4473,
        "meta_bstar": 0,
        "meta_mean_motion_dot": -1.98e-06,
        "meta_mean_motion_ddot": 0,
        "tle_line1": "1 35493U 09034A   25342.97777559 -.00000198  00000+0  00000+0 0  9999",
        "tle_line2": "2 35493   0.0205 287.8987 0000769 250.7085 165.2291  1.00271830 44737"
      },
      "geometry": {
        "type": "Point",
        "coordinates": [
          165.80555702720142,
          -0.01890801497620185
        ]
      }
    },
    {
      "type": "Feature",
      "properties": {
        "norad_id": 36097,
        "name": "INTELSAT 14 (IS-14)",
        "group": "intelsat",
        "lat": -0.021561856830686205,
        "lon": -153.07465730180272,
        "alt_km": 35780.52129365586,
        "timestamp": "2025-12-09T11:33:54.468181+00:00",
        "meta_object_name": "INTELSAT 14 (IS-14)",
        "meta_object_id": "2009-064A",
        "meta_epoch": "2025-12-09T03:05:09.354336",
        "meta_mean_motion": 1.00270456,
        "meta_eccentricity": 0.0002682,
        "meta_inclination": 0.01,
        "meta_ra_of_asc_node": 342.3099,
        "meta_arg_of_pericenter": 282.9219,
        "meta_mean_anomaly": 174.1888,
        "meta_ephemeris_type": 0,
        "meta_classification_type": "U",
        "meta_norad_cat_id": 36097,
        "meta_element_set_no": 999,
        "meta_rev_at_epoch": 5869,
        "meta_bstar": 0,
        "meta_mean_motion_dot": -2.71e-06,
        "meta_mean_motion_ddot": 0,
        "tle_line1": "1 36097U 09064A   25343.12858049 -.00000271  00000+0  00000+0 0  9997",
        "tle_line2": "2 36097   0.0100 342.3099 0002682 282.9219 174.1888  1.00270456 58699"
      },
      "geometry": {
        "type": "Point",
        "coordinates": [
          -153.07465730180272,
          -0.021561856830686205
        ]
      }
    },
    {
      "type": "Feature",
      "properties": {
        "norad_id": 36106,
        "name": "INTELSAT 15 (IS-15)",
        "group": "intelsat",
        "lat": 0.021789090984518325,
        "lon": -22.873071557759932,
        "alt_km": 35781.83875651127,
        "timestamp": "2025-12-09T11:33:54.468193+00:00",
        "meta_object_name": "INTELSAT 15 (IS-15)",
        "meta_object_id": "2009-067A",
        "meta_epoch": "2025-12-09T02:24:38.646720",
        "meta_mean_motion": 1.00273106,
        "meta_eccentricity": 0.0002572,
        "meta_inclination": 0.0293,
        "meta_ra_of_asc_node": 285.0945,
        "meta_arg_of_pericenter": 343.0358,
        "meta_mean_anomaly": 291.2788,
        "meta_ephemeris_type": 0,
        "meta_classification_type": "U",
        "meta_norad_cat_id": 36106,
        "meta_element_set_no": 999,
        "meta_rev_at_epoch": 3932,
        "meta_bstar": 0,
        "meta_mean_motion_dot": -1.83e-06,
        "meta_mean_motion_ddot": 0,
        "tle_line1": "1 36106U 09067A   25343.10044730 -.00000183  00000+0  00000+0 0  9995",
        "tle_line2": "2 36106   0.0293 285.0945 0002572 343.0358 291.2788  1.00273106 39321"
      },
      "geometry": {
        "type": "Point",
        "coordinates": [
          -22.873071557759932,
          0.021789090984518325
        ]
      }
    },
    {
      "type": "Feature",
      "properties": {
        "norad_id": 36131,
        "name": "DIRECTV 12",
        "group": "intelsat",
        "lat": 0.022182793904377836,
        "lon": 149.22073756815885,
        "alt_km": 35788.007043963065,
        "timestamp": "2025-12-09T11:33:54.468205+00:00",
        "meta_object_name": "DIRECTV 12",
        "meta_object_id": "2009-075A",
        "meta_epoch": "2025-12-08T21:40:32.604096",
        "meta_mean_motion": 1.00270047,
        "meta_eccentricity": 3.55e-05,
        "meta_inclination": 0.0409,
        "meta_ra_of_asc_node": 138.4209,
        "meta_arg_of_pericenter": 206.7884,
        "meta_mean_anomaly": 315.1057,
        "meta_ephemeris_type": 0,
        "meta_classification_type": "U",
        "meta_norad_cat_id": 36131,
        "meta_element_set_no": 999,
        "meta_rev_at_epoch": 4464,
        "meta_bstar": 0,
        "meta_mean_motion_dot": -1.01e-06,
        "meta_mean_motion_ddot": 0,
        "tle_line1": "1 36131U 09075A   25342.90315514 -.00000101  00000+0  00000+0 0  9990",
        "tle_line2": "2 36131   0.0409 138.4209 0000355 206.7884 315.1057  1.00270047 44645"
      },
      "geometry": {
        "type": "Point",
        "coordinates": [
          149.22073756815885,
          0.022182793904377836
        ]
      }
    },
    {
      "type": "Feature",
      "properties": {
        "norad_id": 36397,
        "name": "INTELSAT 16 (IS-16)",
        "group": "intelsat",
        "lat": -0.018279595691540834,
        "lon": 175.71777823958664,
        "alt_km": 35785.93000937217,
        "timestamp": "2025-12-09T11:33:54.468217+00:00",
        "meta_object_name": "INTELSAT 16 (IS-16)",
        "meta_object_id": "2010-006A",
        "meta_epoch": "2025-12-09T03:56:38.639904",
        "meta_mean_motion": 1.00270336,
        "meta_eccentricity": 0.0002298,
        "meta_inclination": 0.0156,
        "meta_ra_of_asc_node": 308.0458,
        "meta_arg_of_pericenter": 314.2167,
        "meta_mean_anomaly": 158.8579,
        "meta_ephemeris_type": 0,
        "meta_classification_type": "U",
        "meta_norad_cat_id": 36397,
        "meta_element_set_no": 999,
        "meta_rev_at_epoch": 5774,
        "meta_bstar": 0,
        "meta_mean_motion_dot": -2.42e-06,
        "meta_mean_motion_ddot": 0,
        "tle_line1": "1 36397U 10006A   25343.16433611 -.00000242  00000+0  00000+0 0  9994",
        "tle_line2": "2 36397   0.0156 308.0458 0002298 314.2167 158.8579  1.00270336 57743"
      },
      "geometry": {
        "type": "Point",
        "coordinates": [
          175.71777823958664,
          -0.018279595691540834
        ]
      }
    },
    {
      "type": "Feature",
      "properties": {
        "norad_id": 37185,
        "name": "XM-5",
        "group": "intelsat",
        "lat": -0.03488832791638876,
        "lon": 136.74603067079997,
        "alt_km": 35779.743602504,
        "timestamp": "2025-12-09T11:33:54.468228+00:00",
        "meta_object_name": "XM-5",
        "meta_object_id": "2010-053A",
        "meta_epoch": "2025-12-09T01:02:28.260960",
        "meta_mean_motion": 1.00269679,
        "meta_eccentricity": 0.000175,
        "meta_inclination": 0.0636,
        "meta_ra_of_asc_node": 272.6513,
        "meta_arg_of_pericenter": 243.8809,
        "meta_mean_anomaly": 181.9359,
        "meta_ephemeris_type": 0,
        "meta_classification_type": "U",
        "meta_norad_cat_id": 37185,
        "meta_element_set_no": 999,
        "meta_rev_at_epoch": 5557,
        "meta_bstar": 0,
        "meta_mean_motion_dot": -2.1e-07,
        "meta_mean_motion_ddot": 0,
        "tle_line1": "1 37185U 10053A   25343.04338265 -.00000021  00000+0  00000+0 0  9993",
        "tle_line2": "2 37185   0.0636 272.6513 0001750 243.8809 181.9359  1.00269679 55572"
      },
      "geometry": {
        "type": "Point",
        "coordinates": [
          136.74603067079997,
          -0.03488832791638876
        ]
      }
    }
  ]
}